[
    {
        "Altitude(m)": 607897.607873588,
        "Argument of Periapsis(deg)": 0.0,
        "Eccentricity": 0.0,
        "Inclination(deg)": 60.0,
        "Latitude(deg)": -14.292896396595902,
        "Longitude(deg)": 126.61874417146062,
        "Mean Anomaly(deg)": -16.363600000000037,
        "RAAN(deg)": 235.0,
        "Satellite Name": "Test1 1055",
        "Satellite Number": 1055,
        "Semi-Major Axis(m)": 6980739.136638005,
        "Time(s)": 0
    },
    {
        "Altitude(m)": 607750.8094293477,
        "Argument of Periapsis(deg)": 0.00010418945913296404,
        "Eccentricity": 0.0,
        "Inclination(deg)": 60.0,
        "Latitude(deg)": -13.758738012894874,
        "Longitude(deg)": 126.90581347733118,
        "Mean Anomaly(deg)": -15.743493854538185,
        "RAAN(deg)": 234.99957995086027,
        "Satellite Name": "Test1 1055",
        "Satellite Number": 1055,
        "Semi-Major Axis(m)": 6980739.136638005,
        "Time(s)": 10
    },
    {
        "Altitude(m)": 607606.5352690907,
        "Argument of Periapsis(deg)": 0.0002083789182659281,
        "Eccentricity": 0.0,
        "Inclination(deg)": 60.0,
        "Latitude(deg)": -13.224104882024307,
        "Longitude(deg)": 127.19140638595533,
        "Mean Anomaly(deg)": -15.123387709076432,
        "RAAN(deg)": 234.99915990172047,
        "Satellite Name": "Test1 1055",
        "Satellite Number": 1055,
        "Semi-Major Axis(m)": 6980739.136638005,
        "Time(s)": 20
    },
    {
        "Altitude(m)": 607464.8297648367,
        "Argument of Periapsis(deg)": 0.00031256837739889213,
        "Eccentricity": 0.0,
        "Inclination(deg)": 60.0,
        "Latitude(deg)": -12.689017308525054,
        "Longitude(deg)": 127.47558757664503,
        "Mean Anomaly(deg)": -14.503281563614529,
        "RAAN(deg)": 234.9987398525808,
        "Satellite Name": "Test1 1055",
        "Satellite Number": 1055,
        "Semi-Major Axis(m)": 6980739.136638005,
        "Time(s)": 30
    },
    {
        "Altitude(m)": 607325.7360115105,
        "Argument of Periapsis(deg)": 0.0004167578365318562,
        "Eccentricity": 0.0,
        "Inclination(deg)": 60.0,
        "Latitude(deg)": -12.153495324393477,
        "Longitude(deg)": 127.75842138606367,
        "Mean Anomaly(deg)": -13.883175418152776,
        "RAAN(deg)": 234.99831980344103,
        "Satellite Name": "Test1 1055",
        "Satellite Number": 1055,
        "Semi-Major Axis(m)": 6980739.136638005,
        "Time(s)": 40
    },
    {
        "Altitude(m)": 607189.2958086376,
        "Argument of Periapsis(deg)": 0.0005209472956648203,
        "Eccentricity": 0.0,
        "Inclination(deg)": 60.0,
        "Latitude(deg)": -11.617558703020956,
        "Longitude(deg)": 128.03997083976068,
        "Mean Anomaly(deg)": -13.263069272690924,
        "RAAN(deg)": 234.99789975430124,
        "Satellite Name": "Test1 1055",
        "Satellite Number": 1055,
        "Semi-Major Axis(m)": 6980739.136638005,
        "Time(s)": 50
    },
    {
        "Altitude(m)": 607055.5496426545,
        "Argument of Periapsis(deg)": 0.0006251367547977843,
        "Eccentricity": 0.0,
        "Inclination(deg)": 60.0,
        "Latitude(deg)": -11.081226972781105,
        "Longitude(deg)": 128.32029819590107,
        "Mean Anomaly(deg)": -12.642963127229072,
        "RAAN(deg)": 234.9974797051615,
        "Satellite Name": "Test1 1055",
        "Satellite Number": 1055,
        "Semi-Major Axis(m)": 6980739.136638005,
        "Time(s)": 60
    },
    {
        "Altitude(m)": 606924.536669829,
        "Argument of Periapsis(deg)": 0.0007293262139307483,
        "Eccentricity": 0.0,
        "Inclination(deg)": 60.0,
        "Latitude(deg)": -10.544519430279491,
        "Longitude(deg)": 128.59946548834859,
        "Mean Anomaly(deg)": -12.02285698176727,
        "RAAN(deg)": 234.99705965602183,
        "Satellite Name": "Test1 1055",
        "Satellite Number": 1055,
        "Semi-Major Axis(m)": 6980739.136638005,
        "Time(s)": 70
    },
    {
        "Altitude(m)": 606796.2946999054,
        "Argument of Periapsis(deg)": 0.0008335156730637124,
        "Eccentricity": 0.0,
        "Inclination(deg)": 60.0,
        "Latitude(deg)": -10.007455153283889,
        "Longitude(deg)": 128.87753355625742,
        "Mean Anomaly(deg)": -11.402750836305417,
        "RAAN(deg)": 234.99663960688204,
        "Satellite Name": "Test1 1055",
        "Satellite Number": 1055,
        "Semi-Major Axis(m)": 6980739.136638005,
        "Time(s)": 80
    },
    {
        "Altitude(m)": 606670.8601802833,
        "Argument of Periapsis(deg)": 0.0009377051321966765,
        "Eccentricity": 0.0,
        "Inclination(deg)": 60.0,
        "Latitude(deg)": -9.470053013356313,
        "Longitude(deg)": 129.15456258594617,
        "Mean Anomaly(deg)": -10.782644690843563,
        "RAAN(deg)": 234.99621955774228,
        "Satellite Name": "Test1 1055",
        "Satellite Number": 1055,
        "Semi-Major Axis(m)": 6980739.136638005,
        "Time(s)": 90
    },
    {
        "Altitude(m)": 606548.2681810003,
        "Argument of Periapsis(deg)": 0.0010418945913296407,
        "Eccentricity": 0.0,
        "Inclination(deg)": 60.0,
        "Latitude(deg)": -8.932331688201748,
        "Longitude(deg)": 129.43061265221286,
        "Mean Anomaly(deg)": -10.16253854538171,
        "RAAN(deg)": 234.99579950860254,
        "Satellite Name": "Test1 1055",
        "Satellite Number": 1055,
        "Semi-Major Axis(m)": 6980739.136638005,
        "Time(s)": 100
    },
    {
        "Altitude(m)": 606428.5523802568,
        "Argument of Periapsis(deg)": 0.0011460840504626045,
        "Eccentricity": 0.0,
        "Inclination(deg)": 60.0,
        "Latitude(deg)": -8.394309673750088,
        "Longitude(deg)": 129.7057427462444,
        "Mean Anomaly(deg)": -9.542432399919907,
        "RAAN(deg)": 234.9953794594628,
        "Satellite Name": "Test1 1055",
        "Satellite Number": 1055,
        "Semi-Major Axis(m)": 6980739.136638005,
        "Time(s)": 110
    },
    {
        "Altitude(m)": 606311.7450507327,
        "Argument of Periapsis(deg)": 0.0012502735095955685,
        "Eccentricity": 0.0,
        "Inclination(deg)": 60.0,
        "Latitude(deg)": -7.856005295990142,
        "Longitude(deg)": 129.98001131589825,
        "Mean Anomaly(deg)": -8.922326254458055,
        "RAAN(deg)": 234.99495941032308,
        "Satellite Name": "Test1 1055",
        "Satellite Number": 1055,
        "Semi-Major Axis(m)": 6980739.136638005,
        "Time(s)": 120
    },
    {
        "Altitude(m)": 606197.8770464986,
        "Argument of Periapsis(deg)": 0.0013544629687285324,
        "Eccentricity": 0.0,
        "Inclination(deg)": 60.0,
        "Latitude(deg)": -7.317436722571435,
        "Longitude(deg)": 130.25347680551087,
        "Mean Anomaly(deg)": -8.3022201089962,
        "RAAN(deg)": 234.9945393611833,
        "Satellite Name": "Test1 1055",
        "Satellite Number": 1055,
        "Semi-Major Axis(m)": 6980739.136638005,
        "Time(s)": 130
    },
    {
        "Altitude(m)": 606086.9777906843,
        "Argument of Periapsis(deg)": 0.0014586524278614966,
        "Eccentricity": 0.0,
        "Inclination(deg)": 60.0,
        "Latitude(deg)": -6.778621974187087,
        "Longitude(deg)": 130.52619668239058,
        "Mean Anomaly(deg)": -7.6821139635343485,
        "RAAN(deg)": 234.99411931204358,
        "Satellite Name": "Test1 1055",
        "Satellite Number": 1055,
        "Semi-Major Axis(m)": 6980739.136638005,
        "Time(s)": 140
    },
    {
        "Altitude(m)": 605979.0752638249,
        "Argument of Periapsis(deg)": 0.0015628418869944607,
        "Eccentricity": 0.0,
        "Inclination(deg)": 60.0,
        "Latitude(deg)": -6.23957893575721,
        "Longitude(deg)": 130.79822797576927,
        "Mean Anomaly(deg)": -7.062007818072546,
        "RAAN(deg)": 234.99369926290385,
        "Satellite Name": "Test1 1055",
        "Satellite Number": 1055,
        "Semi-Major Axis(m)": 6980739.136638005,
        "Time(s)": 150
    },
    {
        "Altitude(m)": 605874.1959929141,
        "Argument of Periapsis(deg)": 0.0016670313461274247,
        "Eccentricity": 0.0,
        "Inclination(deg)": 60.0,
        "Latitude(deg)": -5.700325367426148,
        "Longitude(deg)": 131.0696278153695,
        "Mean Anomaly(deg)": -6.441901672610693,
        "RAAN(deg)": 234.9932792137641,
        "Satellite Name": "Test1 1055",
        "Satellite Number": 1055,
        "Semi-Major Axis(m)": 6980739.136638005,
        "Time(s)": 160
    },
    {
        "Altitude(m)": 605772.3650411667,
        "Argument of Periapsis(deg)": 0.0017712208052603888,
        "Eccentricity": 0.0,
        "Inclination(deg)": 60.0,
        "Latitude(deg)": -5.16087891538752,
        "Longitude(deg)": 131.34045245674423,
        "Mean Anomaly(deg)": -5.821795527148942,
        "RAAN(deg)": 234.99285916462435,
        "Satellite Name": "Test1 1055",
        "Satellite Number": 1055,
        "Semi-Major Axis(m)": 6980739.136638005,
        "Time(s)": 170
    },
    {
        "Altitude(m)": 605673.6059985163,
        "Argument of Periapsis(deg)": 0.001875410264393353,
        "Eccentricity": 0.0,
        "Inclination(deg)": 60.0,
        "Latitude(deg)": -4.621257122553796,
        "Longitude(deg)": 131.61075781916222,
        "Mean Anomaly(deg)": -5.201689381687089,
        "RAAN(deg)": 234.99243911548461,
        "Satellite Name": "Test1 1055",
        "Satellite Number": 1055,
        "Semi-Major Axis(m)": 6980739.136638005,
        "Time(s)": 180
    },
    {
        "Altitude(m)": 605577.9409728312,
        "Argument of Periapsis(deg)": 0.0019795997235263173,
        "Eccentricity": 0.0,
        "Inclination(deg)": 60.0,
        "Latitude(deg)": -4.0814774390851944,
        "Longitude(deg)": 131.88060002319753,
        "Mean Anomaly(deg)": -4.581583236225287,
        "RAAN(deg)": 234.99201906634488,
        "Satellite Name": "Test1 1055",
        "Satellite Number": 1055,
        "Semi-Major Axis(m)": 6980739.136638005,
        "Time(s)": 190
    }
]